[{"OBJECT_NAME":"YAOGAN-14","OBJECT_ID":"2012-021A","EPOCH":"2026-03-09T23:13:16.463424","MEAN_MOTION":15.26486019,"ECCENTRICITY":0.00056417,"INCLINATION":97.2863,"RA_OF_ASC_NODE":208.4378,"ARG_OF_PERICENTER":161.6562,"MEAN_ANOMALY":198.4882,"EPHEMERIS_TYPE":0,"CLASSIFICATION_TYPE":"U","NORAD_CAT_ID":38257,"ELEMENT_SET_NO":999,"REV_AT_EPOCH":77067,"BSTAR":0.00037795498,"MEAN_MOTION_DOT":9.798e-5,"MEAN_MOTION_DDOT":0},{"OBJECT_NAME":"STARLINK-30567","OBJECT_ID":"2023-158S","EPOCH":"2026-03-09T05:08:04.180992","MEAN_MOTION":15.27587017,"ECCENTRICITY":9.171e-5,"INCLINATION":43.0022,"RA_OF_ASC_NODE":30.0257,"ARG_OF_PERICENTER":296.0738,"MEAN_ANOMALY":64.0019,"EPHEMERIS_TYPE":0,"CLASSIFICATION_TYPE":"U","NORAD_CAT_ID":58067,"ELEMENT_SET_NO":999,"REV_AT_EPOCH":13349,"BSTAR":4.8509402e-5,"MEAN_MOTION_DOT":1.073e-5,"MEAN_MOTION_DDOT":0}]
